     3.04           N: GNSS NAV DATA    M: Mixed            RINEX VERSION / TYPE
RTKCONV-EX 2.5.0                        20251027 023724 UTC PGM / RUN BY / DATE 
format: u-blox UBX                                          COMMENT             
log: C:\Users\kui\Desktop\COM4___9600_251027_020426.ubx     COMMENT             
                                                            END OF HEADER       
R09 2025 10 27 02 15 00  .286619178951D-03  .272848410532D-11  .938700000000D+05
     -.175055014648D+05  .471617698669D+00 -.931322574615D-09  .000000000000D+00
      .180635834961D+05 -.409046173096D+00  .000000000000D+00 -.200000000000D+01
      .452262255859D+04  .346564960480D+01 -.931322574615D-09  .000000000000D+00
C23 2025 10 27 02 00 00 -.568819930777D-03  .102984287764D-10  .000000000000D+00
      .100000000000D+01 -.676562500000D+01  .436875340469D-08 -.847338580082D-01
     -.287778675556D-06  .236153369769D-03  .693835318089D-05  .528264004326D+04
      .936000000000D+05  .246800482273D-07  .271625610507D+01 -.232830643654D-07
      .944324732493D+00  .214109375000D+03  .259566786581D+00 -.685957144297D-08
     -.118576367753D-09  .000000000000D+00  .103400000000D+04  .000000000000D+00
      .200000000000D+01  .000000000000D+00  .239000000000D-07  .239000000000D-07
      .938700000000D+05  .100000000000D+01
C38 2025 10 27 02 00 00  .254841637798D-03  .207478478842D-11  .000000000000D+00
      .100000000000D+01 -.500703125000D+03  .641098132882D-09 -.127177316061D+01
     -.167866237462D-04  .256672862452D-02  .302679836750D-05  .649374321175D+04
      .936000000000D+05  .208150595427D-06  .951457341732D-01  .246800482273D-07
      .101929130530D+01  .173953125000D+03 -.251884457640D+01 -.195615291019D-08
     -.209294432239D-09  .000000000000D+00  .103400000000D+04  .000000000000D+00
      .200000000000D+01  .000000000000D+00  .440000000000D-08  .440000000000D-08
      .938700000000D+05  .100000000000D+01
C16 2025 10 27 02 00 00 -.926856184378D-03  .101127994867D-10  .000000000000D+00
      .100000000000D+01 -.839375000000D+02  .143970282654D-08  .240697323399D+01
     -.235764309764D-05  .908124900889D-02  .870367512107D-05  .649340349007D+04
      .936000000000D+05  .577419996262D-07  .227744779705D+01 -.637955963612D-07
      .962740640161D+00 -.244062500000D+02 -.218004523671D+01 -.173471511499D-08
      .171792870148D-09  .000000000000D+00  .103400000000D+04  .000000000000D+00
      .200000000000D+01  .000000000000D+00 -.270000000000D-08  .480000000000D-08
      .938700000000D+05  .000000000000D+00
C08 2025 10 27 02 00 00 -.797530170530D-03  .248432385774D-10  .000000000000D+00
      .100000000000D+01 -.480500000000D+03  .389301930274D-09 -.866638428203D+00
     -.160722993314D-04  .366710510571D-02  .490387901664D-05  .649323021507D+04
      .936000000000D+05  .215135514736D-06  .135328955851D+00 -.828877091408D-07
      .108412997336D+01  .139109375000D+03 -.313154372301D+01 -.177471678122D-08
     -.222509268404D-09  .000000000000D+00  .103400000000D+04  .000000000000D+00
      .200000000000D+01  .000000000000D+00  .112000000000D-07 -.700000000000D-09
      .938700000000D+05  .000000000000D+00
G23 2025 10 27 04 00 00  .563287641853D-03  .545696821064D-11  .000000000000D+00
      .183000000000D+03 -.837187500000D+02  .391909181733D-08 -.458605756028D-01
     -.449828803539D-05  .585849687923D-02  .509247183800D-05  .515368706703D+04
      .100800000000D+06  .596046447754D-07  .602323296269D-01  .856816768646D-07
      .986632169739D+00  .294968750000D+03 -.280518528151D+01 -.795354558281D-08
     -.216437586923D-09  .100000000000D+01  .239000000000D+04  .000000000000D+00
      .200000000000D+01  .000000000000D+00 -.838190317154D-08  .951000000000D+03
      .939060000000D+05  .400000000000D+01
G25 2025 10 27 04 00 00  .464865937829D-03 -.193267624127D-11  .000000000000D+00
      .260000000000D+02  .218750000000D+02  .495913513931D-08 -.482368605869D+00
      .123307108879D-05  .125875299564D-01  .839307904243D-05  .515377660751D+04
      .100800000000D+06 -.260770320892D-07 -.308229737127D+01  .134110450745D-06
      .948307427485D+00  .217562500000D+03  .113424313479D+01 -.824534345165D-08
     -.222509268404D-09  .100000000000D+01  .239000000000D+04  .000000000000D+00
      .200000000000D+01  .000000000000D+00  .558793544769D-08  .260000000000D+02
      .939060000000D+05  .400000000000D+01
G12 2025 10 27 04 00 00 -.602212734520D-03 -.795807864051D-12  .000000000000D+00
      .330000000000D+02  .314062500000D+02  .460483466699D-08 -.435969016637D+00
      .149942934513D-05  .885944266338D-02  .886619091034D-05  .515361079025D+04
      .100800000000D+06 -.819563865662D-07 -.298993413947D+01  .558793544769D-07
      .960037824400D+00  .215125000000D+03  .152082208700D+01 -.800033324599D-08
     -.219294848796D-09  .100000000000D+01  .239000000000D+04  .000000000000D+00
      .200000000000D+01  .000000000000D+00 -.125728547573D-07  .330000000000D+02
      .939060000000D+05  .400000000000D+01
R21 2025 10 27 02 15 00 -.249216333032D-03 -.363797880709D-11  .939000000000D+05
      .165739257813D+04 -.317399978638D+00  .000000000000D+00  .000000000000D+00
      .226128027344D+05 -.157686901093D+01 -.931322574615D-09  .400000000000D+01
     -.116434536133D+05 -.310873889923D+01  .931322574615D-09  .000000000000D+00
E21 2025 10 27 01 50 00 -.698087096680D-03 -.237321273744D-11  .000000000000D+00
      .280000000000D+02  .487500000000D+02  .317120352193D-08 -.820415963241D+00
      .233948230743D-05  .873982207850D-04  .928528606892D-05  .544061467171D+04
      .930000000000D+05 -.335276126862D-07 -.290838973692D+01 -.391155481339D-07
      .962987889408D+00  .143656250000D+03  .110876186530D+00 -.537022369137D-08
     -.314655963827D-09  .513000000000D+03  .239000000000D+04  .000000000000D+00
      .312000000000D+01  .000000000000D+00  .465661287308D-09  .698491930962D-09
      .939250000000D+05  .000000000000D+00
E27 2025 10 27 01 50 00 -.808166339993D-03 -.104733999251D-10  .000000000000D+00
      .280000000000D+02  .585000000000D+02  .311798701953D-08  .186253229280D+00
      .268779695034D-05  .237035681494D-03  .927038490772D-05  .544061692238D+04
      .930000000000D+05  .186264514923D-07 -.290842446074D+01 -.242143869400D-07
      .962959731161D+00  .147125000000D+03 -.970119143985D-01 -.531700718898D-08
     -.324656380384D-09  .513000000000D+03  .239000000000D+04  .000000000000D+00
      .312000000000D+01  .000000000000D+00  .465661287308D-09  .698491930962D-09
      .939250000000D+05  .000000000000D+00
C13 2025 10 27 02 00 00 -.175155350007D-03 -.136965994102D-10  .000000000000D+00
      .100000000000D+01 -.454187500000D+03  .549308595194D-09 -.189232786278D+01
     -.150352716446D-04  .571446574759D-02  .389013439417D-05  .649363798714D+04
      .936000000000D+05  .142958015203D-06  .100516249808D+00 -.137370079756D-06
      .104605507118D+01  .156875000000D+03 -.230621096525D+01 -.180757529277D-08
     -.166792661870D-09  .000000000000D+00  .103400000000D+04  .000000000000D+00
      .200000000000D+01  .000000000000D+00 -.970000000000D-08  .270000000000D-08
      .939000000000D+05  .000000000000D+00
G24 2025 10 27 04 00 00 -.257961917669D-03  .126192389871D-10  .000000000000D+00
      .800000000000D+02 -.135625000000D+02  .533200781381D-08  .120325178207D+01
     -.800937414169D-06  .176266985945D-01  .698119401932D-05  .515365490913D+04
      .100800000000D+06 -.298023223877D-06  .207003405170D+01  .111758708954D-07
      .934367048504D+00  .235281250000D+03  .110970765939D+01 -.852535511526D-08
      .853606984729D-10  .100000000000D+01  .239000000000D+04  .000000000000D+00
      .200000000000D+01  .000000000000D+00  .232830643654D-08  .800000000000D+02
      .939360000000D+05  .400000000000D+01
J03 2025 10 27 03 00 00 -.263517722487D-05 -.454747350886D-12  .000000000000D+00
      .105000000000D+03  .545625000000D+02  .253546275506D-08 -.644818077730D+00
      .273622572422D-05  .750518778805D-01 -.956095755100D-05  .649353541565D+04
      .972000000000D+05 -.681728124619D-06 -.838660413984D+00  .441446900368D-06
      .702431487022D+00  .432437500000D+03 -.156835245192D+01 -.296762361344D-08
     -.162506769059D-09  .200000000000D+01  .239000000000D+04  .100000000000D+01
      .280000000000D+01  .100000000000D+01  .465661287308D-09  .873000000000D+03
      .939360000000D+05  .000000000000D+00
R16 2025 10 27 02 15 00  .410694628954D-04  .909494701773D-12  .939300000000D+05
     -.159706557617D+05  .181474494934D+01  .931322574615D-09  .000000000000D+00
      .442294335938D+04 -.194103813171D+01  .000000000000D+00 -.100000000000D+01
      .194131601562D+05  .193233585358D+01 -.186264514923D-08  .000000000000D+00
E29 2025 10 27 01 50 00 -.144988764077D-03 -.349587025994D-11  .000000000000D+00
      .280000000000D+02 -.680625000000D+02  .301941148489D-08 -.783608473307D+00
     -.311620533466D-05  .358747318387D-03  .830926001072D-05  .544061015701D+04
      .930000000000D+05  .000000000000D+00  .127471861157D+01 -.335276126862D-07
      .958985496224D+00  .164000000000D+03  .217069043443D+01 -.536915221817D-08
      .401802450971D-09  .513000000000D+03  .239000000000D+04  .000000000000D+00
      .312000000000D+01  .000000000000D+00 -.465661287308D-08 -.419095158577D-08
      .939550000000D+05  .000000000000D+00
